{
  "type": "FeatureCollection",
  "features": [
    {
      "type": "Feature",
      "geometry": {
        "type": "Polygon",
        "coordinates": [
          [
            [
              85.67561050286221,
              44.06067201144421
            ],
            [
              86.77125084727126,
              43.60547516483783
            ],
            [
              86.84351647227126,
              43.54321930546283
            ],
            [
              86.8891707691462,
              43.468207098431634
            ],
            [
              86.8995467457087,
              43.377569891400356
            ],
            [
              86.8494979175837,
              43.223761297650356
            ],
            [
              86.7434188160212,
              43.107306219525356
            ],
            [
              86.59498131602126,
              43.024359442181634
            ],
            [
              86.4183455738337,
              42.97101471561908
            ],
            [
              86.0350447925837,
              42.93799469608783
            ],
            [
              85.7041121753962,
              42.97766754765033
            ],
            [
              83.57950768538066,
              43.59919462186156
            ],
            [
              83.3452254566462,
              43.6677310242128
            ],
            [
              82.2373153003962,
              43.73895905155655
            ],
            [
              82.07972252695876,
              43.79688141483783
            ],
            [
              81.9588729175837,
              43.886847235150356
            ],
            [
              81.85303795664626,
              43.939764715619106
            ],
            [
              81.7956649097712,
              43.92560455936905
            ],
            [
              81.7220565113337,
              43.93012116093158
            ],
            [
              81.2429305347712,
              44.107245184369106
            ],
            [
              81.18384850352126,
              44.16834137577533
            ],
            [
              81.15235436289626,
              44.275763250775356
            ],
            [
              81.1495467457087,
              44.412787176556606
            ],
            [
              81.17676842539626,
              44.56293366093155
            ],
            [
              81.23487389414626,
              44.70935700077533
            ],
            [
              81.32545006602126,
              44.835577703900384
            ],
            [
              81.44935143320876,
              44.924811102337856
            ],
            [
              81.6079207691462,
              44.96045563358783
            ],
            [
              82.14026940195876,
              44.90216705936905
            ],
            [
              83.0243026050837,
              44.59137604374408
            ],
            [
              83.63736701521523,
              44.498087385614554
            ],
            [
              84.66973852279833,
              44.34099369196349
            ],
            [
              85.1922713550837,
              44.2614810242128
            ],
            [
              85.67561050286221,
              44.06067201144421
            ]
          ]
        ]
      },
      "properties": {
        "FEATURECLA": "Range/mtn",
        "NAME": "Borohoro Mts.",
        "NAMEALT": "",
        "REGION": "Asia",
        "SUBREGION": "",
        "MIN_LABEL": 5.3,
        "MAX_LABEL": 9.0,
        "SCALERANK": 4,
        "LABEL": "Borohoro Mts.",
        "WIKIDATAID": "Q9177711",
        "NAME_AR": "جبال بوروهورو",
        "NAME_BN": "বোরোহোরো মাউন্টেন",
        "NAME_DE": "Borochoro",
        "NAME_EN": "Borohoro Mountains",
        "NAME_ES": "Cordillera Borohoro",
        "NAME_FR": "Montagnes Borohoro",
        "NAME_EL": "Οροσειρά Μποροχόρο",
        "NAME_HI": "बोरोहोरो पर्वत",
        "NAME_HU": "Borohoro-hegység",
        "NAME_ID": "Pegunungan Borohoro",
        "NAME_IT": "monti Borohoro",
        "NAME_JA": "ボロホロ山脈",
        "NAME_KO": "보로호로 마운틴",
        "NAME_NL": "Borohoro-gebergte",
        "NAME_PL": "Borohoro Shan",
        "NAME_PT": "Montanhas Borohoro",
        "NAME_RU": "Боро-Хоро",
        "NAME_SV": "Borochoro",
        "NAME_TR": "Borohoro Dağları",
        "NAME_VI": "Dãy Borohoro",
        "NAME_ZH": "",
        "NE_ID": 1159103591,
        "NAME_FA": "کوه های بروهورو",
        "NAME_HE": "רכס בורוהורו",
        "NAME_UK": "гори Борогоро",
        "NAME_UR": "بوروہورو پہاڑ",
        "NAME_ZHT": ""
      }
    },
    {
      "type": "Feature",
      "geometry": {
        "type": "Polygon",
        "coordinates": [
          [
            [
              82.0489608082087,
              45.67218659061908
            ],
            [
              82.1528426441462,
              45.663458563275356
            ],
            [
              82.2382918628962,
              45.67743561405658
            ],
            [
              82.7133895191462,
              45.965765692181606
            ],
            [
              82.8176375660212,
              46.003729559369106
            ],
            [
              82.91944420664626,
              46.01349518436908
            ],
            [
              83.0167342457087,
              45.98584625858783
            ],
            [
              83.0758162769587,
              45.926459051556606
            ],
            [
              83.18397057383376,
              45.6849429382753
            ],
            [
              83.2491561207087,
              45.38770172733783
            ],
            [
              83.25464928477126,
              45.258612371869106
            ],
            [
              83.2360945972712,
              45.16412994999405
            ],
            [
              83.18921959727126,
              45.120428778119106
            ],
            [
              81.8319197925837,
              45.19354889530658
            ],
            [
              81.47889244883376,
              45.13947174686908
            ],
            [
              81.42579186289626,
              45.113470770306606
            ],
            [
              81.37171471445876,
              45.065497137494106
            ],
            [
              81.22742760508376,
              44.822027899212856
            ],
            [
              81.00635826914626,
              44.575690008587856
            ],
            [
              80.97632897227126,
              44.509772039837856
            ],
            [
              80.90613854258376,
              44.437323309369134
            ],
            [
              80.7756453785212,
              44.398321844525384
            ],
            [
              79.86146080820876,
              44.36725494999405
            ],
            [
              79.7548934253962,
              44.3264224304628
            ],
            [
              79.59693444102126,
              44.22852203983783
            ],
            [
              79.08423912852126,
              44.07086823124408
            ],
            [
              78.80652916758376,
              43.93506500858783
            ],
            [
              78.7708846363337,
              43.92865631718155
            ],
            [
              78.7330428394587,
              43.93183014530658
            ],
            [
              78.5744735035212,
              43.97711823124408
            ],
            [
              78.5368758472712,
              43.9807193054628
            ],
            [
              78.0484725269587,
              43.939764715619106
            ],
            [
              77.73670494883376,
              43.939886785931634
            ],
            [
              77.70704186289626,
              43.959540106244134
            ],
            [
              77.6805526050837,
              43.99970123905655
            ],
            [
              77.5859481128962,
              44.220526434369106
            ],
            [
              77.55958092539626,
              44.25470612186905
            ],
            [
              77.53003990977126,
              44.26605866093155
            ],
            [
              77.0275985035212,
              44.229498602337856
            ],
            [
              76.91712487070876,
              44.246405340619134
            ],
            [
              76.8349715503962,
              44.28687164921283
            ],
            [
              76.7924910816462,
              44.35736725468158
            ],
            [
              76.80054772227126,
              44.464483953900356
            ],
            [
              76.85865319102126,
              44.589911199994134
            ],
            [
              76.94007408945876,
              44.670660711712856
            ],
            [
              77.03785240977126,
              44.718451239056606
            ],
            [
              77.36036217539626,
              44.781317449994134
            ],
            [
              77.4543563160212,
              44.81452057499405
            ],
            [
              78.1759139332087,
              45.47638580936908
            ],
            [
              78.3122664722712,
              45.555121160931606
            ],
            [
              78.7042342457087,
              45.64728424686908
            ],
            [
              79.9074813160212,
              45.7015445007753
            ],
            [
              80.0473738941462,
              45.76593659061908
            ],
            [
              80.52125084727126,
              46.182135321087856
            ],
            [
              80.6591903003962,
              46.26459381718155
            ],
            [
              80.82117760508376,
              46.313971258587884
            ],
            [
              80.89051354258376,
              46.3083560242128
            ],
            [
              80.96619713633376,
              46.27509186405658
            ],
            [
              81.42969811289626,
              45.908087469525384
            ],
            [
              81.8139754566462,
              45.736883856244106
            ],
            [
              82.0489608082087,
              45.67218659061908
            ]
          ]
        ]
      },
      "properties": {
        "FEATURECLA": "Range/mtn",
        "NAME": "Alataw Mts.",
        "NAMEALT": "",
        "REGION": "Asia",
        "SUBREGION": "",
        "MIN_LABEL": 5.3,
        "MAX_LABEL": 9.0,
        "SCALERANK": 4,
        "LABEL": "",
        "WIKIDATAID": "",
        "NAME_AR": "سلسلة جبال ألاتو",
        "NAME_BN": "আলাতায়ো মাউন্টেন",
        "NAME_DE": "Kungej-Alatau",
        "NAME_EN": "Alataw Mountains",
        "NAME_ES": "Cordillera de Alataw",
        "NAME_FR": "Col d'Alataw",
        "NAME_EL": "Όρη Άλατοβ",
        "NAME_HI": "अलताव पर्वत",
        "NAME_HU": "Alataw-hegység",
        "NAME_ID": "Pegunungan Alataw",
        "NAME_IT": "Monti Küngöy Ala",
        "NAME_JA": "アラタウ山脈",
        "NAME_KO": "알라타우 마운틴스",
        "NAME_NL": "Alataw Mountains",
        "NAME_PL": "Góry Ałatau",
        "NAME_PT": "Montanhas Alatau",
        "NAME_RU": "горы Алатау",
        "NAME_SV": "Alatau",
        "NAME_TR": "Alataw Dağları",
        "NAME_VI": "Dãy Alataw",
        "NAME_ZH": "阿拉塔山脉",
        "NE_ID": 1730072723,
        "NAME_FA": "رشته کوه آلاتاو",
        "NAME_HE": "רכס אלאטאוו",
        "NAME_UK": "гори Алатав",
        "NAME_UR": "ایلاٹو پہاڑ",
        "NAME_ZHT": "阿拉套山"
      }
    },
    {
      "type": "Feature",
      "geometry": {
        "type": "Polygon",
        "coordinates": [
          [
            [
              74.18262780039626,
              50.65979645390033
            ],
            [
              74.8408309253962,
              50.50055573124408
            ],
            [
              75.6965438160212,
              50.50482819218158
            ],
            [
              75.74732506602126,
              50.490668035931606
            ],
            [
              75.82459557383376,
              50.45477936405658
            ],
            [
              75.86805260508376,
              50.442206121869106
            ],
            [
              75.9255477222712,
              50.43921539921283
            ],
            [
              76.1875106128962,
              50.46887848515033
            ],
            [
              76.5947371753962,
              50.448431707806634
            ],
            [
              77.1858016285212,
              50.32391998905658
            ],
            [
              78.35450280039626,
              49.78937409061908
            ],
            [
              78.41761315195876,
              49.748053289837884
            ],
            [
              78.4366561207087,
              49.68573639530658
            ],
            [
              78.42249596445876,
              49.57977936405658
            ],
            [
              78.2089949878962,
              49.06171295780655
            ],
            [
              78.16004479258376,
              48.9943911804628
            ],
            [
              78.1305037769587,
              48.98621246952533
            ],
            [
              78.11500084727126,
              48.99542877811905
            ],
            [
              78.1018172535212,
              48.97553131718158
            ],
            [
              78.0861922535212,
              48.87311432499408
            ],
            [
              78.09278405039626,
              48.727972723431606
            ],
            [
              78.1074324878962,
              48.65479157108783
            ],
            [
              78.1552840503962,
              48.52930328983783
            ],
            [
              78.1828719410212,
              48.406988836712856
            ],
            [
              78.1971541675837,
              47.77777741093155
            ],
            [
              78.1706649097712,
              47.700995184369134
            ],
            [
              78.0399276050837,
              47.48798248905658
            ],
            [
              77.97828949053107,
              47.315755093640604
            ],
            [
              77.9038192066462,
              47.10767243046283
            ],
            [
              77.8266707691462,
              47.022162176556634
            ],
            [
              77.7124129566462,
              46.95612213749408
            ],
            [
              77.4207869800837,
              46.873968817181634
            ],
            [
              76.9150496753962,
              46.851935125775384
            ],
            [
              76.12098229258376,
              46.949774481244106
            ],
            [
              75.5582381519587,
              46.92255280155658
            ],
            [
              75.3120223316462,
              46.97382233280655
            ],
            [
              74.84620201914626,
              46.944525457806606
            ],
            [
              74.8045760425837,
              46.93305084843158
            ],
            [
              74.5600692066462,
              46.780951239056606
            ],
            [
              74.4309188160212,
              46.65894196171283
            ],
            [
              74.0629988941462,
              46.455267645306606
            ],
            [
              73.8864852222712,
              46.3894107117128
            ],
            [
              72.68995201914626,
              46.313971258587884
            ],
            [
              71.43775475352126,
              46.4370181335878
            ],
            [
              69.90589440195876,
              46.704779364056634
            ],
            [
              69.52503919479236,
              46.87603588155312
            ],
            [
              69.30811608164626,
              46.97357819218158
            ],
            [
              69.2747908863337,
              46.998602606244106
            ],
            [
              69.2544051441462,
              47.0368716492128
            ],
            [
              69.2047225269587,
              47.818182684369106
            ],
            [
              69.3180037769587,
              48.9359195007753
            ],
            [
              70.0097762378962,
              49.91583893436908
            ],
            [
              70.34974205820876,
              50.2268130554628
            ],
            [
              71.23475182383376,
              50.683783270306606
            ],
            [
              74.18262780039626,
              50.65979645390033
            ]
          ]
        ]
      },
      "properties": {
        "FEATURECLA": "Plateau",
        "NAME": "KAZAKH UPLAND",
        "NAMEALT": "",
        "REGION": "Asia",
        "SUBREGION": "",
        "MIN_LABEL": 5.3,
        "MAX_LABEL": 9.0,
        "SCALERANK": 4,
        "LABEL": "",
        "WIKIDATAID": "",
        "NAME_AR": "مرتفعات كازاخستان",
        "NAME_BN": "কাজাখ আপল্যান্ড",
        "NAME_DE": "KASACHISCHE SCHWELLE",
        "NAME_EN": "Kazakh Uplands",
        "NAME_ES": "TIERRAS ALTAS DE KAZAJSTÁN",
        "NAME_FR": "Qazaqtyng Usaqshoqylyghy",
        "NAME_EL": "ΥΨΙΠΕΔΟ ΚΑΖΑΚ",
        "NAME_HI": "कज़ाख अपलैंड",
        "NAME_HU": "KAZAH-FELFÖLD",
        "NAME_ID": "DATARAN TINGGI KAZAKHSTAN",
        "NAME_IT": "Alture del Kazakistan",
        "NAME_JA": "カザフ高地",
        "NAME_KO": "카작 업랜드",
        "NAME_NL": "Kazachse Hoogland",
        "NAME_PL": "POGÓRZE KAZACHSKIE",
        "NAME_PT": "Planaltos Cazaques",
        "NAME_RU": "Каза́хский мелкосо́почник",
        "NAME_SV": "Kazakiska höglandet",
        "NAME_TR": "KAZAKİSTAN YAYLASI",
        "NAME_VI": "CAO NGUYÊN KAZAKH",
        "NAME_ZH": "哈萨克高地",
        "NE_ID": 1730072971,
        "NAME_FA": "ارتفاعات کازاخ",
        "NAME_HE": "הרמה הקזאחית",
        "NAME_UK": "КАЗАХСЬКИЙ ДРІБНОСОПКОВИК",
        "NAME_UR": "کازاکھ اپ لینڈ",
        "NAME_ZHT": "哈薩克高原"
      }
    },
    {
      "type": "Feature",
      "geometry": {
        "type": "Polygon",
        "coordinates": [
          [
            [
              85.74317467539626,
              47.20026276249408
            ],
            [
              85.76673424570876,
              47.138861395306606
            ],
            [
              85.7766219410212,
              47.082525946087856
            ],
            [
              85.77503502695876,
              47.02875397343155
            ],
            [
              85.6936141285212,
              46.78998444218158
            ],
            [
              85.6369735035212,
              46.69757721561908
            ],
            [
              85.5488387378962,
              46.6148745789003
            ],
            [
              85.30884850352126,
              46.48163483280655
            ],
            [
              85.03565514414626,
              46.39618561405655
            ],
            [
              84.2968856128962,
              46.34796784061908
            ],
            [
              84.0432235035212,
              46.380133367962856
            ],
            [
              83.98707115977126,
              46.398260809369106
            ],
            [
              83.9646102222712,
              46.41156647343158
            ],
            [
              83.8945418628962,
              46.48377106327533
            ],
            [
              83.87684166758376,
              46.53620026249405
            ],
            [
              83.8991805347712,
              46.58838532108783
            ],
            [
              84.09913170664626,
              46.77777741093158
            ],
            [
              84.10401451914626,
              46.8158023132753
            ],
            [
              84.06165612070876,
              46.84833405155655
            ],
            [
              83.54542076914626,
              46.98700592655658
            ],
            [
              83.25562584727126,
              47.00324127811908
            ],
            [
              83.13306725352126,
              46.98291657108783
            ],
            [
              82.9867049488337,
              46.91138336796283
            ],
            [
              82.92640221445876,
              46.896185614056634
            ],
            [
              82.5133162769587,
              46.90680573124408
            ],
            [
              82.3994246753962,
              46.934698797650356
            ],
            [
              82.07545006602126,
              47.08466217655658
            ],
            [
              82.0150252613337,
              47.12396881718158
            ],
            [
              81.9766951832087,
              47.157782293744134
            ],
            [
              81.71753990977126,
              47.130499578900384
            ],
            [
              81.3863631519587,
              47.143255926556606
            ],
            [
              81.29420006602126,
              47.16889069218158
            ],
            [
              81.18165123789626,
              47.202948309369106
            ],
            [
              80.4851180347712,
              47.20575592655655
            ],
            [
              80.27186119883376,
              47.2421939148378
            ],
            [
              80.10705033455147,
              47.32183865109005
            ],
            [
              79.5212508472712,
              47.604925848431606
            ],
            [
              79.27393639414626,
              47.78974030155658
            ],
            [
              79.0592147144587,
              48.0587222351503
            ],
            [
              79.0280867847712,
              48.14191315311908
            ],
            [
              79.02015221445876,
              48.217108465619106
            ],
            [
              79.03065026133376,
              48.28534577030658
            ],
            [
              79.0546981128962,
              48.3474185242128
            ],
            [
              79.3286238941462,
              48.75293610233783
            ],
            [
              79.37415612070876,
              48.79462311405658
            ],
            [
              79.42774498789626,
              48.823736883587856
            ],
            [
              79.49268639414626,
              48.83801911015033
            ],
            [
              81.1618758472712,
              48.7148501648378
            ],
            [
              81.8062850269587,
              48.56427643436905
            ],
            [
              82.75780480244,
              48.110474261088996
            ],
            [
              83.8640242847712,
              47.582892157025356
            ],
            [
              85.4760848316462,
              47.42389557499408
            ],
            [
              85.56360924570876,
              47.392645574994106
            ],
            [
              85.6405135425837,
              47.34271881718155
            ],
            [
              85.7041121753962,
              47.26929352421283
            ],
            [
              85.74317467539626,
              47.20026276249408
            ]
          ]
        ]
      },
      "properties": {
        "FEATURECLA": "Range/mtn",
        "NAME": "Tarbagatay Ra.",
        "NAMEALT": "",
        "REGION": "Asia",
        "SUBREGION": "",
        "MIN_LABEL": 5.0,
        "MAX_LABEL": 8.0,
        "SCALERANK": 3,
        "LABEL": "Tarbagatay Ra.",
        "WIKIDATAID": "Q128500",
        "NAME_AR": "سلسلة جبال تارباغاتي",
        "NAME_BN": "তরবাগাতায় রেঞ্জ",
        "NAME_DE": "Tarbagataigebirge",
        "NAME_EN": "Tarbagatai Mountains",
        "NAME_ES": "Montañas Tarbagatai",
        "NAME_FR": "Tarbagataï",
        "NAME_EL": "Οροσειρά Ταρμπάγκατεϊ",
        "NAME_HI": "तारबगताय रेंज",
        "NAME_HU": "Tarbagatay-hegység",
        "NAME_ID": "Pegunungan Tarbagatay",
        "NAME_IT": "monti Tarbagatai",
        "NAME_JA": "タルバガタイ山脈",
        "NAME_KO": "타르바가타이 레인지",
        "NAME_NL": "Tarbagataj",
        "NAME_PL": "Tarbagataj",
        "NAME_PT": "Montanhas Tarbagatai",
        "NAME_RU": "Тарбагатай",
        "NAME_SV": "Tarbagataibergen",
        "NAME_TR": "Tarbagatay Dağları",
        "NAME_VI": "Dãy Tarbagatay",
        "NAME_ZH": "塔尔巴哈台山",
        "NE_ID": 1159103923,
        "NAME_FA": "رشته کوه تارباگاتای",
        "NAME_HE": "רכס טאראגאטאי",
        "NAME_UK": "Тарбагатай",
        "NAME_UR": "ترباگاتے رینج",
        "NAME_ZHT": "塔尔巴哈台山"
      }
    },
    {
      "type": "Feature",
      "geometry": {
        "type": "Polygon",
        "coordinates": [
          [
            [
              100.56690514414626,
              44.10394928593155
            ],
            [
              100.3293563160212,
              44.038763739056606
            ],
            [
              98.7743026050837,
              43.98474762577533
            ],
            [
              98.26000363011704,
              44.06399603210161
            ],
            [
              98.04310143320876,
              44.097418524212856
            ],
            [
              97.9701033863337,
              44.08270905155658
            ],
            [
              97.8984481128962,
              44.05152008671283
            ],
            [
              97.80660150231941,
              43.98175281597943
            ],
            [
              97.7681990894587,
              43.95258209843155
            ],
            [
              97.46379361771423,
              43.62124660075071
            ],
            [
              97.3818465503962,
              43.53204987186908
            ],
            [
              97.1402694019587,
              43.363470770306606
            ],
            [
              97.0087996753962,
              43.30451080936908
            ],
            [
              96.8708602222712,
              43.265448309369134
            ],
            [
              96.72693932383376,
              43.2487857117128
            ],
            [
              96.5776473316462,
              43.25672028202533
            ],
            [
              96.4235945972712,
              43.29169342655655
            ],
            [
              96.2663680347712,
              43.36774323124408
            ],
            [
              95.3776107922155,
              44.086325190445905
            ],
            [
              95.1379500660212,
              44.28009674686908
            ],
            [
              95.01050865977126,
              44.339544989056606
            ],
            [
              94.87488854258376,
              44.36890289921283
            ],
            [
              92.8626815113337,
              44.41132233280658
            ],
            [
              91.9248153003962,
              44.62885162968155
            ],
            [
              91.11512291758376,
              44.67548248905655
            ],
            [
              90.6557723316462,
              44.879706121869106
            ],
            [
              90.07496178477126,
              45.42145416874408
            ],
            [
              89.7611190113337,
              46.0023257507753
            ],
            [
              89.6151229175837,
              46.39801666874408
            ],
            [
              89.3361922535212,
              46.796881414837856
            ],
            [
              88.91822350352126,
              47.22046539921283
            ],
            [
              88.40027916758376,
              47.557745672650384
            ],
            [
              86.6301375660212,
              48.097113348431606
            ],
            [
              84.3342391285212,
              48.30487702030655
            ],
            [
              84.2284041675837,
              48.437201239056606
            ],
            [
              83.92469323008376,
              48.750311590619106
            ],
            [
              83.39149010508376,
              49.783514715619106
            ],
            [
              83.3028670582087,
              49.902533270306606
            ],
            [
              83.1845809253962,
              50.01166412968155
            ],
            [
              82.9991182385746,
              50.093940528350316
            ],
            [
              82.25452721445876,
              50.42426178593158
            ],
            [
              82.10413658945876,
              50.52045319218155
            ],
            [
              82.0014754566462,
              50.644598699994134
            ],
            [
              81.94324791758376,
              50.78894684452533
            ],
            [
              81.9256697925837,
              50.94580719608783
            ],
            [
              81.94507897227126,
              51.1074282898378
            ],
            [
              81.9980574878962,
              51.266180731244106
            ],
            [
              82.08106530039626,
              51.41425202030658
            ],
            [
              82.58716881602126,
              52.06159088749405
            ],
            [
              82.67664635508376,
              52.124396063275356
            ],
            [
              82.89026940195876,
              52.217657782025356
            ],
            [
              83.3381453785212,
              52.30487702030655
            ],
            [
              84.1261957005348,
              52.24022198390173
            ],
            [
              85.72457881992764,
              52.10908376101614
            ],
            [
              86.6999617847712,
              52.0290591492128
            ],
            [
              87.25037682383376,
              51.842596746869106
            ],
            [
              87.7544051441462,
              51.563727117962856
            ],
            [
              88.29798424570876,
              51.09686920780658
            ],
            [
              88.46265709727126,
              50.866522528119134
            ],
            [
              88.4930460106813,
              50.69139997626482
            ],
            [
              88.52148787789648,
              50.52749769061788
            ],
            [
              88.5706893238337,
              50.243963934369134
            ],
            [
              88.72021742319319,
              50.158896324442594
            ],
            [
              89.6530867847712,
              49.628180242962884
            ],
            [
              89.7324324878962,
              49.446112371869106
            ],
            [
              89.77588951914626,
              49.401556707806606
            ],
            [
              89.90186608164626,
              49.32105133671283
            ],
            [
              90.0438338550837,
              49.26886627811908
            ],
            [
              90.8200789722712,
              49.142645574994106
            ],
            [
              90.95472252695876,
              49.086493231244134
            ],
            [
              92.04944908945876,
              48.103522039837856
            ],
            [
              92.2397567066462,
              47.980108953900356
            ],
            [
              92.44703209727126,
              47.89099762577533
            ],
            [
              92.9624129566462,
              47.77081940311905
            ],
            [
              94.9133406910212,
              46.91205475468158
            ],
            [
              95.6123153003962,
              46.832098699994134
            ],
            [
              97.0445662769587,
              46.18164703983783
            ],
            [
              98.9775496753962,
              45.680121160931606
            ],
            [
              99.8907576832087,
              45.09131500858783
            ],
            [
              100.4406844410212,
              44.85504791874405
            ],
            [
              100.53962737552231,
              44.79308564365891
            ],
            [
              100.5634871753962,
              44.778143621869106
            ],
            [
              100.66749108164626,
              44.684393621869106
            ],
            [
              100.7463485035212,
              44.568915106244106
            ],
            [
              100.75144913394789,
              44.553725936078735
            ],
            [
              100.79053795664626,
              44.437323309369134
            ],
            [
              100.7863875660212,
              44.326117254681606
            ],
            [
              100.74244225352126,
              44.23413727421283
            ],
            [
              100.6665145191462,
              44.160467840619106
            ],
            [
              100.56690514414626,
              44.10394928593155
            ]
          ]
        ]
      },
      "properties": {
        "FEATURECLA": "Range/mtn",
        "NAME": "ALTAY MOUNTAINS",
        "NAMEALT": "",
        "REGION": "Asia",
        "SUBREGION": "",
        "MIN_LABEL": 4.0,
        "MAX_LABEL": 7.0,
        "SCALERANK": 2,
        "LABEL": "ALTAY MOUNTAINS",
        "WIKIDATAID": "Q5955",
        "NAME_AR": "جبال ألتاي",
        "NAME_BN": "আলতাই পর্বতমালা",
        "NAME_DE": "Altai",
        "NAME_EN": "Altai Mountains",
        "NAME_ES": "macizo de Altái",
        "NAME_FR": "Altaï",
        "NAME_EL": "Αλτάι",
        "NAME_HI": "अल्ताई पर्वत शृंखला",
        "NAME_HU": "Altaj",
        "NAME_ID": "Pegunungan Altai",
        "NAME_IT": "Monti Altaj",
        "NAME_JA": "アルタイ山脈",
        "NAME_KO": "알타이산맥",
        "NAME_NL": "Altaj",
        "NAME_PL": "Ałtaj",
        "NAME_PT": "Montanhas Altai",
        "NAME_RU": "Алтайские горы",
        "NAME_SV": "Altaj",
        "NAME_TR": "Altay Dağları",
        "NAME_VI": "Dãy núi Altay",
        "NAME_ZH": "阿尔泰山脉",
        "NE_ID": 1159104169,
        "NAME_FA": "کوههای آلتای",
        "NAME_HE": "הרי אלטאי",
        "NAME_UK": "Алтай",
        "NAME_UR": "آلٹے پہاڑ",
        "NAME_ZHT": "阿尔泰山脉"
      }
    },
    {
      "type": "Feature",
      "geometry": {
        "type": "MultiPolygon",
        "coordinates": [
          [
            [
              [
                74.73428014151321,
                42.683084627291436
              ],
              [
                74.59936917027156,
                42.690713323724566
              ],
              [
                74.391830947991,
                42.7053007401764
              ],
              [
                74.70679772227138,
                42.68915436405655
              ],
              [
                74.73428014151321,
                42.683084627291436
              ]
            ]
          ],
          [
            [
              [
                74.391830947991,
                42.7053007401764
              ],
              [
                73.8519393238337,
                42.73297760624399
              ],
              [
                74.59936917027156,
                42.690713323724566
              ],
              [
                74.74659264414632,
                42.68036530155652
              ],
              [
                74.73428014151321,
                42.683084627291436
              ],
              [
                75.09107506602132,
                42.662909246869106
              ],
              [
                75.4157820972712,
                42.71765778202547
              ],
              [
                76.3234969410212,
                43.213202215619134
              ],
              [
                83.41260826914638,
                43.55506012577527
              ],
              [
                83.57950768538066,
                43.59919462186156
              ],
              [
                83.65357506602132,
                43.61878082890027
              ],
              [
                84.39185631602138,
                43.9628970398378
              ],
              [
                85.67561050286221,
                44.06067201144421
              ],
              [
                86.70301354258382,
                44.1389224304628
              ],
              [
                87.99122155039632,
                43.90546295780655
              ],
              [
                90.2971297535212,
                43.87793610233791
              ],
              [
                92.1075545582087,
                44.17487213749422
              ],
              [
                94.9287215503962,
                43.895453192181634
              ],
              [
                95.01099694102138,
                43.874090887494134
              ],
              [
                95.08069908945888,
                43.83716461796277
              ],
              [
                95.13733971445882,
                43.77924225468158
              ],
              [
                95.18018639414638,
                43.694769598431606
              ],
              [
                95.20862877695882,
                43.578131414837856
              ],
              [
                95.22144615977132,
                43.29523346561916
              ],
              [
                95.1681014332087,
                43.06293366093166
              ],
              [
                95.05762780039638,
                42.87787506718172
              ],
              [
                94.89869225352132,
                42.73663971561905
              ],
              [
                94.6998397144587,
                42.63617584843158
              ],
              [
                94.46998131602138,
                42.5730044617128
              ],
              [
                93.95167076914638,
                42.545599676556606
              ],
              [
                93.81544030039626,
                42.56305573124402
              ],
              [
                93.69971764414638,
                42.5960757507753
              ],
              [
                93.50916588633388,
                42.699530340619106
              ],
              [
                93.13965905039626,
                42.98950836796274
              ],
              [
                92.93641198008382,
                43.09259674686908
              ],
              [
                92.72608483164638,
                43.14081452030655
              ],
              [
                90.95740807383388,
                43.15863678593172
              ],
              [
                90.72059166758376,
                43.0948550476503
              ],
              [
                90.56714928477138,
                42.98407623905658
              ],
              [
                90.52869713633376,
                42.8154361023378
              ],
              [
                90.02881920664638,
                42.68561432499422
              ],
              [
                89.78052819102132,
                42.66077301640033
              ],
              [
                89.65003502695888,
                42.67230866093166
              ],
              [
                88.8587752613337,
                42.95233795780652
              ],
              [
                88.72571862070888,
                42.95734284061905
              ],
              [
                88.6024276050837,
                42.92304108280658
              ],
              [
                88.49366295664632,
                42.83862946171291
              ],
              [
                88.4685164722712,
                42.8032290710878
              ],
              [
                88.4525252613337,
                42.766302801556634
              ],
              [
                88.42396080820888,
                42.61511871952527
              ],
              [
                88.41163170664632,
                42.579352117962856
              ],
              [
                88.3914901050837,
                42.545599676556606
              ],
              [
                88.35779869883388,
                42.51038239140024
              ],
              [
                87.28040612070888,
                41.84870026249416
              ],
              [
                86.87671959727138,
                41.72955963749405
              ],
              [
                86.59888756602132,
                41.71253082890041
              ],
              [
                84.4882918628962,
                41.99719879765033
              ],
              [
                82.16553795664626,
                41.66260407108777
              ],
              [
                77.17469323008382,
                39.88568756718149
              ],
              [
                74.85316002695876,
                39.6602847351503
              ],
              [
                73.05665123789638,
                39.754278875775356
              ],
              [
                73.01124108164626,
                39.768866278119106
              ],
              [
                72.98597252695882,
                39.79968903202527
              ],
              [
                72.9770613941462,
                39.85333893436916
              ],
              [
                72.99012291758382,
                40.02020905155655
              ],
              [
                73.21094811289638,
                40.673712469525356
              ],
              [
                73.35425865977132,
                41.79535553593152
              ],
              [
                73.34046471445888,
                41.9155337585878
              ],
              [
                73.12378990977138,
                42.422613836712884
              ],
              [
                73.12440026133382,
                42.506537176556634
              ],
              [
                73.19837487070888,
                42.64911530155655
              ],
              [
                73.33082115977132,
                42.73187897343155
              ],
              [
                73.50831139414638,
                42.76740143436908
              ],
              [
                74.391830947991,
                42.7053007401764
              ]
            ]
          ]
        ]
      },
      "properties": {
        "FEATURECLA": "Range/mtn",
        "NAME": "TIAN SHAN",
        "NAMEALT": "",
        "REGION": "Asia",
        "SUBREGION": "",
        "MIN_LABEL": 2.0,
        "MAX_LABEL": 6.0,
        "SCALERANK": 1,
        "LABEL": "TIAN SHAN",
        "WIKIDATAID": "Q5474",
        "NAME_AR": "جبال تيان شان",
        "NAME_BN": "থিয়েন শান পর্বতমালা",
        "NAME_DE": "Tian Shan",
        "NAME_EN": "Tian Shan",
        "NAME_ES": "Tian Shan",
        "NAME_FR": "Tian Shan",
        "NAME_EL": "Τιεν Σαν",
        "NAME_HI": "तियाँ शान",
        "NAME_HU": "Tien-san",
        "NAME_ID": "Tian Shan",
        "NAME_IT": "Tien Shan",
        "NAME_JA": "天山山脈",
        "NAME_KO": "톈산산맥",
        "NAME_NL": "Tiensjan",
        "NAME_PL": "Tienszan",
        "NAME_PT": "Tian Shan",
        "NAME_RU": "Тянь-Шань",
        "NAME_SV": "Tianshan",
        "NAME_TR": "Tanrı Dağları",
        "NAME_VI": "Thiên Sơn",
        "NAME_ZH": "天山山脈",
        "NE_ID": 1159104299,
        "NAME_FA": "تیان شان",
        "NAME_HE": "טיין שאן",
        "NAME_UK": "Тянь-Шань",
        "NAME_UR": "تیان شان",
        "NAME_ZHT": "天山山脈"
      }
    }
  ]
}